ONEWEB-0572             
1 55151U 23004M   26190.76864088  .00000107  00000+0  24242-3 0  9995
2 55151  87.9137   1.3725 0002007  92.5116 267.6245 13.17651024170454
ONEWEB-0573             
1 55152U 23004N   26190.65028443 -.00000057  00000+0 -17719-3 0  9998
2 55152  87.9180 331.0011 0002727 100.7847 259.3592 13.18687007172654
ONEWEB-0588             
1 55153U 23004P   26190.64355451  .00000066  00000+0  13385-3 0  9993
2 55153  87.9179 331.0018 0002230  86.8229 273.3158 13.18686933172658
ONEWEB-0598             
1 55154U 23004Q   26189.90484710  .00000350  00000+0  95132-3 0  9998
2 55154  87.8882  16.7437 0002409 102.7860 257.3537 13.11415042168740
ONEWEB-0599             
1 55155U 23004R   26189.89452139 -.00000025  00000+0 -96280-4 0  9994
2 55155  87.9137   1.5450 0001812  98.7029 261.4307 13.17650048170343
ONEWEB-0614             
1 55156U 23004S   26190.73902568  .00000583  00000+0  16083-2 0  9994
2 55156  87.8876  16.5858 0001843  82.5787 277.5551 13.11415934168799
ONEWEB-0616             
1 55157U 23004T   26189.93670818  .00000050  00000+0  96753-4 0  9998
2 55157  87.9137   1.5407 0001434 120.7035 239.4238 13.17650617170564
ONEWEB-0617             
1 55158U 23004U   26189.96418789  .00000560  00000+0  15450-2 0  9998
2 55158  87.8881  16.7327 0002071  77.5025 282.6335 13.11418267168714
ONEWEB-0618             
1 55159U 23004V   26190.67473387  .00003405  00000+0  18904-3 0  9993
2 55159  86.9101 168.5034 0011345 195.9411 164.1474 15.13343997185661
ONEWEB-0619             
1 55160U 23004W   26189.89283514 -.00000038  00000+0 -13111-3 0  9994
2 55160  87.9151   1.5318 0001515  83.0377 277.0927 13.17650500170457
ONEWEB-0620             
1 55161U 23004X   26189.95909868  .00000374  00000+0  10182-2 0  9994
2 55161  87.8874  16.7407 0002087  91.7768 268.3599 13.11418600168688
ONEWEB-0621             
1 55162U 23004Y   26190.74919654  .00000333  00000+0  90389-3 0  9991
2 55162  87.8884  16.5746 0001786  81.3340 278.7990 13.11414860168763
ONEWEB-0622             
1 55163U 23004Z   26190.75428238  .00000100  00000+0  24548-3 0  9992
2 55163  87.8885  16.5764 0002332  74.7895 285.3490 13.11414411168754
ONEWEB-0623             
1 55164U 23004AA  26190.72306561  .00000057  00000+0  11288-3 0  9992
2 55164  87.9130   1.3946 0001857  66.4969 293.6358 13.17647834170553
ONEWEB-0624             
1 55165U 23004AB  26189.91444994 -.00000229  00000+0 -66665-3 0  9997
2 55165  87.8960 346.2605 0001788  90.9738 269.1596 13.12928458170928
ONEWEB-0625             
1 55166U 23004AC  26190.71294301  .00000084  00000+0  18383-3 0  9994
2 55166  87.9137   1.3927 0001734  94.5656 265.5674 13.17651111170541
ONEWEB-0626             
1 55167U 23004AD  26190.70283684  .00000046  00000+0  86127-4 0  9996
2 55167  87.9131   1.3945 0002060  96.3665 263.7701 13.17650516170548
ONEWEB-0627             
1 55168U 23004AE  26190.76694531  .00000080  00000+0  17324-3 0  9990
2 55168  87.9137   1.3817 0001833  76.4294 283.7042 13.17648200170555
ONEWEB-0628             
1 55169U 23004AF  26189.90391032  .00000140  00000+0  35356-3 0  9997
2 55169  87.8957 346.3352 0001700  71.5215 288.6099 13.12441381170881
ONEWEB-0629             
1 55170U 23004AG  26190.74248049  .00000016  00000+0  89809-5 0  9998
2 55170  87.9134   1.3824 0001574  86.8332 273.2979 13.17649294170550
ONEWEB-0631             
1 55171U 23004AH  26190.63681053  .00000083  00000+0  17723-3 0  9991
2 55171  87.9192 330.9711 0002369  92.5952 267.5452 13.18686966172637
ONEWEB-0709             
1 55172U 23004AJ  26189.94892363 -.00000069  00000+0 -22949-3 0  9994
2 55172  87.8875  16.7452 0002525 103.5511 256.5899 13.11418523168727
ONEWEB-0710             
1 55173U 23004AK  26190.75681735  .00000033  00000+0  53045-4 0  9996
2 55173  87.9136   1.3750 0001904  87.2591 272.8758 13.17647297170553
ONEWEB-0711             
1 55174U 23004AL  26189.46231604 -.00000345  00000+0 -10087-2 0  9994
2 55174  87.8881  16.8300 0002135  69.7914 290.3443 13.11415014168628
ONEWEB-0713             
1 55175U 23004AM  26189.93874845 -.00000439  00000+0 -12759-2 0  9999
2 55175  87.8886  16.7373 0002004  78.7108 281.4246 13.11416869168679
ONEWEB-0715             
1 55176U 23004AN  26190.54403378 -.00000554  00000+0 -15992-2 0  9998
2 55176  87.8879  16.6162 0002466  94.7951 265.3458 13.11415812168799
ONEWEB-0716             
1 55177U 23004AP  26190.75006584  .00000111  00000+0  25401-3 0  9994
2 55177  87.9134   1.3790 0001722  97.7506 262.3821 13.17647365170550
ONEWEB-0717             
1 55178U 23004AQ  26190.73319816 -.00000037  00000+0 -12727-3 0  9994
2 55178  87.9145   1.3723 0002200  78.5045 281.6333 13.17649725170606
ONEWEB-0719             
1 55179U 23004AR  26189.90802159 -.00000017  00000+0 -77015-4 0  9999
2 55179  87.9146   1.5167 0001677  93.0750 267.0573 13.17650200170440
ONEWEB-0530             
1 55796U 23029A   26189.68061353 -.00000044  00000+0 -14023-3 0  9998
2 55796  87.9178 270.1846 0001950  85.9494 274.1862 13.20772718163981
